HAWK-A                  
1 43765U 18099H   26068.67628545  .00008617  00000+0  36104-3 0  9995
2 43765  97.4051 122.2425 0034260 275.5523  84.1807 15.23231043397949
STARLINK-32007          
1 60094U 24117D   26068.22554817  .00000003  00000+0  12226-4 0  9999
2 60094  53.1622  39.4082 0001103  96.1423 263.9703 15.30183739 96810
